{"type": "FeatureCollection", "features": [{"type": "Feature", "properties": {"norad_id": 28054, "name": "DMSP 5D-3 F16 (USA 172)", "group": "weather", "lat": 58.892956073307865, "lon": -161.73642375537202, "alt_km": 842.8270008669133, "timestamp": "2025-12-11T13:55:01.810296+00:00", "meta": {"OBJECT_NAME": "DMSP 5D-3 F16 (USA 172)", "OBJECT_ID": "2003-048A", "EPOCH": "2025-12-11T06:50:36.571200", "MEAN_MOTION": 14.1442351, "ECCENTRICITY": 0.00065468, "INCLINATION": 99.0048, "RA_OF_ASC_NODE": 2.7307, "ARG_OF_PERICENTER": 325.4472, "MEAN_ANOMALY": 94.4249, "EPHEMERIS_TYPE": 0, "CLASSIFICATION_TYPE": "U", "NORAD_CAT_ID": 28054, "ELEMENT_SET_NO": 999, "REV_AT_EPOCH": 14292, "BSTAR": 0.00013941653, "MEAN_MOTION_DOT": 2.21e-06, "MEAN_MOTION_DDOT": 0}, "tle": {"line1": "1 28054U 03048A   25345.28514550  .00000221  00000+0  13942-3 0  9999", "line2": "2 28054  99.0048   2.7307 0006546 325.4472  94.4249 14.14423510142923"}}, "geometry": {"type": "Point", "coordinates": [-161.73642375537202, 58.892956073307865]}}, {"type": "Feature", "properties": {"norad_id": 28912, "name": "METEOSAT-9 (MSG-2)", "group": "weather", "lat": -8.832475738211732, "lon": -24.889740848510563, "alt_km": 35785.74139612127, "timestamp": "2025-12-11T13:55:01.810346+00:00", "meta": {"OBJECT_NAME": "METEOSAT-9 (MSG-2)", "OBJECT_ID": "2005-049B", "EPOCH": "2025-12-10T20:37:31.694304", "MEAN_MOTION": 1.00275463, "ECCENTRICITY": 0.0003704, "INCLINATION": 8.9357, "RA_OF_ASC_NODE": 55.9949, "ARG_OF_PERICENTER": 190.2808, "MEAN_ANOMALY": 188.5842, "EPHEMERIS_TYPE": 0, "CLASSIFICATION_TYPE": "U", "NORAD_CAT_ID": 28912, "ELEMENT_SET_NO": 999, "REV_AT_EPOCH": 511, "BSTAR": 0, "MEAN_MOTION_DOT": 1.27e-06, "MEAN_MOTION_DDOT": 0}, "tle": {"line1": "1 28912U 05049B   25344.85939461  .00000127  00000+0  00000+0 0  9991", "line2": "2 28912   8.9357  55.9949 0003704 190.2808 188.5842  1.00275463  5110"}}, "geometry": {"type": "Point", "coordinates": [-24.889740848510563, -8.832475738211732]}}, {"type": "Feature", "properties": {"norad_id": 29522, "name": "DMSP 5D-3 F17 (USA 191)", "group": "weather", "lat": 57.02550100304691, "lon": -22.722143271546223, "alt_km": 843.7327338079795, "timestamp": "2025-12-11T13:55:01.810364+00:00", "meta": {"OBJECT_NAME": "DMSP 5D-3 F17 (USA 191)", "OBJECT_ID": "2006-050A", "EPOCH": "2025-12-11T06:51:16.337664", "MEAN_MOTION": 14.14918632, "ECCENTRICITY": 0.00093486, "INCLINATION": 98.7394, "RA_OF_ASC_NODE": 350.705, "ARG_OF_PERICENTER": 229.3801, "MEAN_ANOMALY": 130.6561, "EPHEMERIS_TYPE": 0, "CLASSIFICATION_TYPE": "U", "NORAD_CAT_ID": 29522, "ELEMENT_SET_NO": 999, "REV_AT_EPOCH": 98584, "BSTAR": 0.00016966865, "MEAN_MOTION_DOT": 2.85e-06, "MEAN_MOTION_DDOT": 0}, "tle": {"line1": "1 29522U 06050A   25345.28560576  .00000285  00000+0  16967-3 0  9995", "line2": "2 29522  98.7394 350.7050 0009348 229.3801 130.6561 14.14918632985846"}}, "geometry": {"type": "Point", "coordinates": [-22.722143271546223, 57.02550100304691]}}, {"type": "Feature", "properties": {"norad_id": 32958, "name": "FENGYUN 3A", "group": "weather", "lat": 65.41913910366603, "lon": 124.6153949032386, "alt_km": 825.9349561448053, "timestamp": "2025-12-11T13:55:01.810377+00:00", "meta": {"OBJECT_NAME": "FENGYUN 3A", "OBJECT_ID": "2008-026A", "EPOCH": "2025-12-11T06:37:10.784928", "MEAN_MOTION": 14.19513945, "ECCENTRICITY": 0.00079603, "INCLINATION": 98.6696, "RA_OF_ASC_NODE": 284.8335, "ARG_OF_PERICENTER": 315.0563, "MEAN_ANOMALY": 44.9968, "EPHEMERIS_TYPE": 0, "CLASSIFICATION_TYPE": "U", "NORAD_CAT_ID": 32958, "ELEMENT_SET_NO": 999, "REV_AT_EPOCH": 90874, "BSTAR": 0.00012366066, "MEAN_MOTION_DOT": 2.17e-06, "MEAN_MOTION_DDOT": 0}, "tle": {"line1": "1 32958U 08026A   25345.27581927  .00000217  00000+0  12366-3 0  9993", "line2": "2 32958  98.6696 284.8335 0007960 315.0563  44.9968 14.19513945908741"}}, "geometry": {"type": "Point", "coordinates": [124.6153949032386, 65.41913910366603]}}, {"type": "Feature", "properties": {"norad_id": 35491, "name": "GOES 14", "group": "weather", "lat": 1.1897879624126964, "lon": -179.49135502787735, "alt_km": 35824.2973034603, "timestamp": "2025-12-11T13:55:01.810392+00:00", "meta": {"OBJECT_NAME": "GOES 14", "OBJECT_ID": "2009-033A", "EPOCH": "2025-12-10T16:27:03.557376", "MEAN_MOTION": 1.00162418, "ECCENTRICITY": 0.0003441, "INCLINATION": 1.1989, "RA_OF_ASC_NODE": 85.3725, "ARG_OF_PERICENTER": 333.0778, "MEAN_ANOMALY": 159.5038, "EPHEMERIS_TYPE": 0, "CLASSIFICATION_TYPE": "U", "NORAD_CAT_ID": 35491, "ELEMENT_SET_NO": 999, "REV_AT_EPOCH": 470, "BSTAR": 0, "MEAN_MOTION_DOT": -4.6e-07, "MEAN_MOTION_DDOT": 0}, "tle": {"line1": "1 35491U 09033A   25344.68545784 -.00000046  00000+0  00000+0 0  9991", "line2": "2 35491   1.1989  85.3725 0003441 333.0778 159.5038  1.00162418  4700"}}, "geometry": {"type": "Point", "coordinates": [-179.49135502787735, 1.1897879624126964]}}, {"type": "Feature", "properties": {"norad_id": 35951, "name": "DMSP 5D-3 F18 (USA 210)", "group": "weather", "lat": -71.71824434316687, "lon": -9.757707737381475, "alt_km": 857.0052238135422, "timestamp": "2025-12-11T13:55:01.810405+00:00", "meta": {"OBJECT_NAME": "DMSP 5D-3 F18 (USA 210)", "OBJECT_ID": "2009-057A", "EPOCH": "2025-12-11T05:46:47.096832", "MEAN_MOTION": 14.14768009, "ECCENTRICITY": 0.00120767, "INCLINATION": 98.8834, "RA_OF_ASC_NODE": 321.6491, "ARG_OF_PERICENTER": 66.6749, "MEAN_ANOMALY": 293.5693, "EPHEMERIS_TYPE": 0, "CLASSIFICATION_TYPE": "U", "NORAD_CAT_ID": 35951, "ELEMENT_SET_NO": 999, "REV_AT_EPOCH": 83301, "BSTAR": 0.00024956786, "MEAN_MOTION_DOT": 4.37e-06, "MEAN_MOTION_DDOT": 0}, "tle": {"line1": "1 35951U 09057A   25345.24082288  .00000437  00000+0  24957-3 0  9990", "line2": "2 35951  98.8834 321.6491 0012076  66.6749 293.5693 14.14768009833017"}}, "geometry": {"type": "Point", "coordinates": [-9.757707737381475, -71.71824434316687]}}, {"type": "Feature", "properties": {"norad_id": 36411, "name": "EWS-G2 (GOES 15)", "group": "weather", "lat": -0.8041511572082995, "lon": -9.223962617183798, "alt_km": 35787.06073344687, "timestamp": "2025-12-11T13:55:01.810419+00:00", "meta": {"OBJECT_NAME": "EWS-G2 (GOES 15)", "OBJECT_ID": "2010-008A", "EPOCH": "2025-12-11T05:14:32.294976", "MEAN_MOTION": 1.00269399, "ECCENTRICITY": 0.00058279, "INCLINATION": 0.8105, "RA_OF_ASC_NODE": 86.0595, "ARG_OF_PERICENTER": 174.1629, "MEAN_ANOMALY": 320.014, "EPHEMERIS_TYPE": 0, "CLASSIFICATION_TYPE": "U", "NORAD_CAT_ID": 36411, "ELEMENT_SET_NO": 999, "REV_AT_EPOCH": 5775, "BSTAR": 0, "MEAN_MOTION_DOT": 4.4e-07, "MEAN_MOTION_DDOT": 0}, "tle": {"line1": "1 36411U 10008A   25345.21842934  .00000044  00000+0  00000+0 0  9992", "line2": "2 36411   0.8105  86.0595 0005827 174.1629 320.0140  1.00269399 57759"}}, "geometry": {"type": "Point", "coordinates": [-9.223962617183798, -0.8041511572082995]}}, {"type": "Feature", "properties": {"norad_id": 36744, "name": "COMS 1", "group": "weather", "lat": -1.5033886465844033, "lon": 57.52795711211814, "alt_km": 35789.73729082806, "timestamp": "2025-12-11T13:55:01.810432+00:00", "meta": {"OBJECT_NAME": "COMS 1", "OBJECT_ID": "2010-032A", "EPOCH": "2025-12-10T15:51:52.946208", "MEAN_MOTION": 1.0027063, "ECCENTRICITY": 0.00011371, "INCLINATION": 4.3367, "RA_OF_ASC_NODE": 78.0199, "ARG_OF_PERICENTER": 211.0495, "MEAN_ANOMALY": 156.7077, "EPHEMERIS_TYPE": 0, "CLASSIFICATION_TYPE": "U", "NORAD_CAT_ID": 36744, "ELEMENT_SET_NO": 999, "REV_AT_EPOCH": 4920, "BSTAR": 0, "MEAN_MOTION_DOT": -3.4e-06, "MEAN_MOTION_DDOT": 0}, "tle": {"line1": "1 36744U 10032A   25344.66102947 -.00000340  00000+0  00000+0 0  9999", "line2": "2 36744   4.3367  78.0199 0001137 211.0495 156.7077  1.00270630 49204"}}, "geometry": {"type": "Point", "coordinates": [57.52795711211814, -1.5033886465844033]}}, {"type": "Feature", "properties": {"norad_id": 37214, "name": "FENGYUN 3B", "group": "weather", "lat": -68.53497752543619, "lon": -178.19419318670907, "alt_km": 855.8587990015185, "timestamp": "2025-12-11T13:55:01.810444+00:00", "meta": {"OBJECT_NAME": "FENGYUN 3B", "OBJECT_ID": "2010-059A", "EPOCH": "2025-12-11T06:13:52.612608", "MEAN_MOTION": 14.14789408, "ECCENTRICITY": 0.00221299, "INCLINATION": 98.9906, "RA_OF_ASC_NODE": 25.2261, "ARG_OF_PERICENTER": 1.9384, "MEAN_ANOMALY": 58.5056, "EPHEMERIS_TYPE": 0, "CLASSIFICATION_TYPE": "U", "NORAD_CAT_ID": 37214, "ELEMENT_SET_NO": 999, "REV_AT_EPOCH": 78085, "BSTAR": 0.00019174731, "MEAN_MOTION_DOT": 3.25e-06, "MEAN_MOTION_DDOT": 0}, "tle": {"line1": "1 37214U 10059A   25345.25963672  .00000325  00000+0  19175-3 0  9996", "line2": "2 37214  98.9906  25.2261 0022129   1.9384  58.5056 14.14789408780852"}}, "geometry": {"type": "Point", "coordinates": [-178.19419318670907, -68.53497752543619]}}, {"type": "Feature", "properties": {"norad_id": 37849, "name": "SUOMI NPP", "group": "weather", "lat": 69.75505774695456, "lon": -101.83313023028592, "alt_km": 819.1902564483953, "timestamp": "2025-12-11T13:55:01.810455+00:00", "meta": {"OBJECT_NAME": "SUOMI NPP", "OBJECT_ID": "2011-061A", "EPOCH": "2025-12-11T06:48:50.502240", "MEAN_MOTION": 14.19513625, "ECCENTRICITY": 0.00022003, "INCLINATION": 98.7771, "RA_OF_ASC_NODE": 282.6386, "ARG_OF_PERICENTER": 122.8265, "MEAN_ANOMALY": 237.3123, "EPHEMERIS_TYPE": 0, "CLASSIFICATION_TYPE": "U", "NORAD_CAT_ID": 37849, "ELEMENT_SET_NO": 999, "REV_AT_EPOCH": 73178, "BSTAR": 0.00011387399, "MEAN_MOTION_DOT": 1.96e-06, "MEAN_MOTION_DDOT": 0}, "tle": {"line1": "1 37849U 11061A   25345.28391785  .00000196  00000+0  11387-3 0  9990", "line2": "2 37849  98.7771 282.6386 0002200 122.8265 237.3123 14.19513625731781"}}, "geometry": {"type": "Point", "coordinates": [-101.83313023028592, 69.75505774695456]}}]}